ONEWEB-0205             
1 48226U 21031S   25093.48143405  .00000138  00000+0  33647-3 0  9994
2 48226  87.9093  17.1364 0001660  81.7351 278.3967 13.14503257190508
ONEWEB-0206             
1 48227U 21031T   25093.53058895  .00000170  00000+0  42325-3 0  9998
2 48227  87.9086  17.1091 0001768  80.3247 279.8082 13.14503108190460
ONEWEB-0182             
1 48228U 21031U   25093.29748040  .00000304  00000+0  78601-3 0  9995
2 48228  87.9090  17.1948 0001939  81.8024 278.3325 13.14504293190646
ONEWEB-0186             
1 48229U 21031V   25093.53693681  .00000220  00000+0  55975-3 0  9999
2 48229  87.9091  17.1091 0001737  78.7508 281.3816 13.14502488190626
ONEWEB-0181             
1 48230U 21031W   25093.51473573  .00000793  00000+0  21035-2 0  9999
2 48230  87.9099  17.1843 0001930  75.1254 285.0089 13.14497094190477
ONEWEB-0188             
1 48231U 21031X   25093.47667909  .00000498  00000+0  13098-2 0  9995
2 48231  87.9090  17.1847 0001852  80.0890 280.0448 13.14501517190376
ONEWEB-0220             
1 48232U 21031Y   25093.51632401 -.00000040  00000+0 -14217-3 0  9990
2 48232  87.9085  17.1243 0001601  85.8539 274.2773 13.14503949190643
ONEWEB-0165             
1 48233U 21031Z   25093.54486510  .00000459  00000+0  12033-2 0  9997
2 48233  87.9089  17.1557 0001893  77.5882 282.5460 13.14503276190602
